#aV2020 10 29  0  0  0.00000000     288 DD+AD WGS84 FIT  NGA
## 2129 345600.00000000   300.00000000 59151 0.0000000000000
+   31     1  2  3  4  5  6  7  8  9 10 11 12 13 15 16 17 18
+         19 20 21 22 23 24 25 26 27 28 29 30 31 32  0  0  0
+          0  0  0  0  0  0  0  0  0  0  0  0  0  0  0  0  0
+          0  0  0  0  0  0  0  0  0  0  0  0  0  0  0  0  0
+          0  0  0  0  0  0  0  0  0  0  0  0  0  0  0  0  0
++         2  2  2  2  2  2  2  2  2  2  2  2  2  2  2  2  2
++         2  2  2  2  2  2  2  2  2  2  2  2  2  2  0  0  0
++         0  0  0  0  0  0  0  0  0  0  0  0  0  0  0  0  0
++         0  0  0  0  0  0  0  0  0  0  0  0  0  0  0  0  0
++         0  0  0  0  0  0  0  0  0  0  0  0  0  0  0  0  0
%c cc cc ccc ccc cccc cccc cccc cccc ccccc ccccc ccccc ccccc
%c cc cc ccc ccc cccc cccc cccc cccc ccccc ccccc ccccc ccccc
%f  0.0000000  0.000000000  0.00000000000  0.000000000000000
%f  0.0000000  0.000000000  0.00000000000  0.000000000000000
%i    0    0    0    0      0      0      0      0         0
%i    0    0    0    0      0      0      0      0         0
/*      NGA, ST. LOUIS,MO.                                  
/*   EPHEMERIS COMPUTED FROM 2 DAYS OF DATA                 
/*   EPOCHA v5 SMOOTHER                                     
/*   G1762 IERS2010 SATAF SATAPC                            
*  2020 10 29 12 55  0.00000000
P  1  10751.632489  13636.151831 -20431.591550    812.255465                    
V  1 -25257.860450    636.252144 -12699.565960     -0.029549                    
P  2  11868.222201 -14552.221312  19422.938098   -535.802999                    
V  2  23335.275138   -652.275859 -15282.087770     -0.048429                    
P  3  12829.730286  23297.025743  -1084.171840   -339.275433                    
V  3  -2839.622183    192.955869 -31780.518223     -0.101760                    
P  4   4176.313229  18327.736397  18750.886312   -150.127562                    
V  4 -13667.829810  19562.105482 -16120.422366     -0.037531                    
P  5   2421.497375 -19512.931988  17615.956336    -24.573099                    
V  5  13809.166563  18199.207495  18283.467913     -0.009221                    
P  6  24349.439393  -6083.837327   8803.666660   -336.012710                    
V  6  11081.122258   1841.186191 -29526.020670     -0.020310                    
P  7  24229.363721   6816.234858   9539.873842   -403.410373                    
V  7 -11517.862805   2290.502161  28120.474199     -0.078030                    
P  8  -3473.705548  23364.512139 -11856.562937    -53.172574                    
V  8  -9329.912725  12179.141398  26968.710751     -0.013518                    
P  9  13573.962354   7180.713151  21608.553362   -306.636152                    
V  9 -13210.943536  24248.990315    222.802134     -0.050199                    
P 10 -17295.636711  -2068.388800 -20034.184276   -491.646103                    
V 10 -12207.763496 -22461.982310  12546.430055     -0.093151                    
P 11    704.554520  17496.845846 -20510.116131   -123.522606                    
V 11 -22682.588921  10875.980292   8332.850938      0.105518                    
P 12  -9613.140866 -24635.699865  -3467.904111     47.583486                    
V 12   3755.056447   2699.716596 -31590.698992     -0.051262                    
P 13  12499.289557 -22772.547046  -5369.112958     59.514441                    
V 13   6072.859709  -3773.497418  31013.194434      0.038078                    
P 15   -179.514707 -23395.435935 -12566.975742   -193.659294                    
V 15   9181.883952 -13070.271812  25262.793472      0.025989                    
P 16  -3504.635024  19623.506494  17096.167779   -229.047428                    
V 16 -11143.683575 -19378.858450  20146.273290     -0.052371                    
P 17  18815.514083 -11348.786686 -14462.077751    346.585035                    
V 17  -8921.886722  16969.487309 -24240.790593      0.053125                    
P 18 -24726.998940  -5798.861695   7855.891654    314.132010                    
V 18  10004.098508  -2294.136984  29704.318733      0.054004                    
P 19  19216.558924 -15558.203201  -9882.709308    -85.391111                    
V 19  -5490.263813  10987.780284 -28877.585015      0.050335                    
P 20 -20694.694718 -12063.039573 -11819.937367    526.226871                    
V 20  -7028.046877 -13389.343280  25875.710552     -0.001336                    
P 21  -3688.010683  15049.933360 -20808.252650     62.777460                    
V 21 -28184.235677   1399.975004   6135.984302      0.039191                    
P 22   8854.584299  23467.054347  -8771.692397   -737.189831                    
V 22  -9356.779468  -7324.363154 -28251.899512      0.049610                    
P 23 -19074.065998 -11908.968352 -14184.622160     93.158278                    
V 23  -7703.944706 -16347.024821  24111.612209      0.055157                    
P 24  -7371.312163 -14935.303136 -20969.275713      7.180212                    
V 24  26041.587088  -2531.045904  -7042.779171     -0.004209                    
P 25 -17197.959995 -18874.066509   7555.694975     13.156497                    
V 25  -2919.476020  -9705.015684 -29675.729177      0.062582                    
P 26 -12143.117079   9810.311774  21443.024608    303.157128                    
V 26 -15056.173922 -22875.187168   2177.966020      0.061609                    
P 27 -12191.168620  23354.217346  -1329.536375     -1.741685                    
V 27  -2993.174958     57.290533  32289.396515     -0.085141                    
P 28  16050.285912   1518.047410 -20493.110856    661.995640                    
V 28  10773.119502  25166.958228  10181.311108     -0.044873                    
P 29 -10797.663741 -10127.287394  22012.845493   -225.543621                    
V 29  15658.191101 -23178.277094  -3022.988041     -0.077996                    
P 30  26674.680571    371.433452   -287.054291   -326.147666                    
V 30    349.943885   3355.020630  31101.557804     -0.067534                    
P 31 -23585.580714   6998.899264  10530.359790    -78.034272                    
V 31 -13266.474991  -2464.486397 -27462.380574     -0.024038                    
P 32 -18505.665943  11442.065460 -15037.374628    362.460857                    
V 32   7445.233349 -17970.254075 -22860.355337      0.036775                    
EOF
